{
    "links": {
        "self": "http://www.neowsapp.com/rest/v1/neo/3843905?api_key=iIulBulltgU6a56xZRHN4H3l9WmuAYTsLGpBGhQ2"
    },
    "id": "3843905",
    "neo_reference_id": "3843905",
    "name": "(2019 SD1)",
    "designation": "2019 SD1",
    "nasa_jpl_url": "http://ssd.jpl.nasa.gov/sbdb.cgi?sstr=3843905",
    "absolute_magnitude_h": 28.5,
    "estimated_diameter": {
        "kilometers": {
            "estimated_diameter_min": 0.0053034072,
            "estimated_diameter_max": 0.0118587791
        },
        "meters": {
            "estimated_diameter_min": 5.3034072332,
            "estimated_diameter_max": 11.8587790858
        },
        "miles": {
            "estimated_diameter_min": 0.0032953835,
            "estimated_diameter_max": 0.0073687014
        },
        "feet": {
            "estimated_diameter_min": 17.3996305869,
            "estimated_diameter_max": 38.9067567758
        }
    },
    "is_potentially_hazardous_asteroid": false,
    "close_approach_data": [
        {
            "close_approach_date": "2019-09-21",
            "close_approach_date_full": "2019-Sep-21 05:35",
            "epoch_date_close_approach": 1569044100000,
            "relative_velocity": {
                "kilometers_per_second": "23.1092855115",
                "kilometers_per_hour": "83193.4278415228",
                "miles_per_hour": "51693.1607607506"
            },
            "miss_distance": {
                "astronomical": "0.0006516432",
                "lunar": "0.2534892048",
                "kilometers": "97484.434719984",
                "miles": "60574.0188804192"
            },
            "orbiting_body": "Moon"
        },
        {
            "close_approach_date": "2019-09-21",
            "close_approach_date_full": "2019-Sep-21 06:46",
            "epoch_date_close_approach": 1569048360000,
            "relative_velocity": {
                "kilometers_per_second": "24.0856492798",
                "kilometers_per_hour": "86708.3374071223",
                "miles_per_hour": "53877.1888738866"
            },
            "miss_distance": {
                "astronomical": "0.0018695401",
                "lunar": "0.7272510989",
                "kilometers": "279679.216839587",
                "miles": "173784.6068448206"
            },
            "orbiting_body": "Earth"
        },
        {
            "close_approach_date": "2079-03-01",
            "close_approach_date_full": "2079-Mar-01 12:09",
            "epoch_date_close_approach": 3444898140000,
            "relative_velocity": {
                "kilometers_per_second": "7.0005931975",
                "kilometers_per_hour": "25202.1355109086",
                "miles_per_hour": "15659.626923431"
            },
            "miss_distance": {
                "astronomical": "1.7593651925",
                "lunar": "684.3930598825",
                "kilometers": "263197285.350139975",
                "miles": "163543209.517182655"
            },
            "orbiting_body": "Juptr"
        }
    ],
    "orbital_data": {
        "orbit_id": "1",
        "orbit_determination_date": "2019-09-20 23:12:06",
        "first_observation_date": "2019-09-20",
        "last_observation_date": "2019-09-21",
        "data_arc_in_days": 1,
        "observations_used": 36,
        "orbit_uncertainty": "8",
        "minimum_orbit_intersection": ".000277495",
        "jupiter_tisserand_invariant": "3.176",
        "epoch_osculation": "2458747.5",
        "eccentricity": ".7750815346040874",
        "semi_major_axis": "2.208951995460369",
        "inclination": "4.798014772879191",
        "ascending_node_longitude": "177.6446324874021",
        "orbital_period": "1199.161961425893",
        "perihelion_distance": ".4968340929521852",
        "perihelion_argument": "279.2240052482128",
        "aphelion_distance": "3.921069897968553",
        "perihelion_time": "2458793.486172695089",
        "mean_anomaly": "346.1945069116878",
        "mean_motion": ".3002096560600815",
        "equinox": "J2000",
        "orbit_class": {
            "orbit_class_type": "APO",
            "orbit_class_description": "Near-Earth asteroid orbits which cross the Earth’s orbit similar to that of 1862 Apollo",
            "orbit_class_range": "a (semi-major axis) > 1.0 AU; q (perihelion) < 1.017 AU"
        }
    },
    "is_sentry_object": false
}